start=new Date('2023-04-23T00:00:00.000Z').valueOf();
sats=[{"SITE":"AFWTR","BSTAR":"0.00029346000000","MEAN_ELEMENT_THEORY":"SGP4","MEAN_ANOMALY":"267.4660","ARG_OF_PERICENTER":"92.6744","CLASSIFICATION_TYPE":"U","ECCENTRICITY":"0.00015690","DECAY_DATE":null,"INCLINATION":"97.6539","NORAD_CAT_ID":"53480","OBJECT_ID":"2022-099R","RCS_SIZE":"LARGE","MEAN_MOTION_DDOT":"0.0000000000000","EPOCH":"2023-04-22T08:02:12.281568","RA_OF_ASC_NODE":"234.2232","PERIAPSIS":"561.878","TIME_SYSTEM":"UTC","APOAPSIS":"564.056","LAUNCH_DATE":"2022-08-12","CENTER_NAME":"EARTH","OBJECT_TYPE":"PAYLOAD","ELEMENT_SET_NO":"999","OBJECT_NAME":"STARLINK-4442","TLE_LINE1":"1 53480U 22099R   23112.33486437  .00003714  00000-0  29346-3 0  9991","SEMIMAJOR_AXIS":"6941.102","REF_FRAME":"TEME","TLE_LINE2":"2 53480  97.6539 234.2232 0001569  92.6744 267.4660 15.01274617 38097","GP_ID":"230595769","REV_AT_EPOCH":"3809","EPHEMERIS_TYPE":"0","FILE":"3892285","PERIOD":"95.918","MEAN_MOTION_DOT":"0.00003714","COUNTRY_CODE":"US","MEAN_MOTION":"15.01274617"},{"PERIAPSIS":"561.920","RA_OF_ASC_NODE":"234.2165","EPOCH":"2023-04-22T07:54:12.031488","MEAN_MOTION_DDOT":"0.0000000000000","RCS_SIZE":"LARGE","OBJECT_ID":"2022-099S","TIME_SYSTEM":"UTC","APOAPSIS":"564.018","ARG_OF_PERICENTER":"101.5096","MEAN_ANOMALY":"258.6298","MEAN_ELEMENT_THEORY":"SGP4","BSTAR":"0.00022906000000","SITE":"AFWTR","INCLINATION":"97.6540","DECAY_DATE":null,"NORAD_CAT_ID":"53481","ECCENTRICITY":"0.00015110","CLASSIFICATION_TYPE":"U","REV_AT_EPOCH":"3809","EPHEMERIS_TYPE":"0","TLE_LINE2":"2 53481  97.6540 234.2165 0001511 101.5096 258.6298 15.01273810 38095","GP_ID":"230596519","REF_FRAME":"TEME","MEAN_MOTION":"15.01273810","COUNTRY_CODE":"US","PERIOD":"95.919","MEAN_MOTION_DOT":"0.00002885","FILE":"3892285","OBJECT_TYPE":"PAYLOAD","LAUNCH_DATE":"2022-08-12","CENTER_NAME":"EARTH","TLE_LINE1":"1 53481U 22099S   23112.32930592  .00002885  00000-0  22906-3 0  9990","SEMIMAJOR_AXIS":"6941.104","OBJECT_NAME":"STARLINK-4302","ELEMENT_SET_NO":"999"},{"SITE":"AFWTR","BSTAR":"0.00037648000000","MEAN_ANOMALY":"266.0413","MEAN_ELEMENT_THEORY":"SGP4","ARG_OF_PERICENTER":"94.0981","CLASSIFICATION_TYPE":"U","ECCENTRICITY":"0.00014830","DECAY_DATE":null,"INCLINATION":"97.6539","NORAD_CAT_ID":"53482","OBJECT_ID":"2022-099T","MEAN_MOTION_DDOT":"0.0000000000000","RCS_SIZE":"LARGE","PERIAPSIS":"561.933","RA_OF_ASC_NODE":"234.2175","EPOCH":"2023-04-22T07:54:33.435360","TIME_SYSTEM":"UTC","APOAPSIS":"563.992","LAUNCH_DATE":"2022-08-12","CENTER_NAME":"EARTH","OBJECT_TYPE":"PAYLOAD","ELEMENT_SET_NO":"999","OBJECT_NAME":"STARLINK-4360","TLE_LINE1":"1 53482U 22099T   23112.32955365  .00004782  00000-0  37648-3 0  9993","SEMIMAJOR_AXIS":"6941.098","REF_FRAME":"TEME","GP_ID":"230564339","TLE_LINE2":"2 53482  97.6539 234.2175 0001483  94.0981 266.0413 15.01275940 38090","REV_AT_EPOCH":"3809","EPHEMERIS_TYPE":"0","FILE":"3892071","COUNTRY_CODE":"US","MEAN_MOTION_DOT":"0.00004782","PERIOD":"95.918","MEAN_MOTION":"15.01275940"},{"GP_ID":"230563604","TLE_LINE2":"2 53483  97.6542 234.2108 0001053 103.0352 257.0990 15.01273857 38092","REF_FRAME":"TEME","REV_AT_EPOCH":"3809","EPHEMERIS_TYPE":"0","COUNTRY_CODE":"US","PERIOD":"95.919","MEAN_MOTION_DOT":"0.00003855","FILE":"3892071","MEAN_MOTION":"15.01273857","LAUNCH_DATE":"2022-08-12","CENTER_NAME":"EARTH","OBJECT_TYPE":"PAYLOAD","ELEMENT_SET_NO":"999","TLE_LINE1":"1 53483U 22099U   23112.32399722  .00003855  00000-0  30443-3 0  9999","SEMIMAJOR_AXIS":"6941.104","OBJECT_NAME":"STARLINK-4401","MEAN_MOTION_DDOT":"0.0000000000000","RCS_SIZE":"LARGE","OBJECT_ID":"2022-099U","PERIAPSIS":"562.238","RA_OF_ASC_NODE":"234.2108","EPOCH":"2023-04-22T07:46:33.359808","TIME_SYSTEM":"UTC","APOAPSIS":"563.700","MEAN_ANOMALY":"257.0990","MEAN_ELEMENT_THEORY":"SGP4","BSTAR":"0.00030443000000","SITE":"AFWTR","ARG_OF_PERICENTER":"103.0352","CLASSIFICATION_TYPE":"U","DECAY_DATE":null,"NORAD_CAT_ID":"53483","INCLINATION":"97.6542","ECCENTRICITY":"0.00010530"},{"ARG_OF_PERICENTER":"93.7154","SITE":"AFWTR","BSTAR":"0.00024606000000","MEAN_ANOMALY":"266.4240","MEAN_ELEMENT_THEORY":"SGP4","ECCENTRICITY":"0.00014890","DECAY_DATE":null,"INCLINATION":"97.6542","NORAD_CAT_ID":"53484","CLASSIFICATION_TYPE":"U","PERIAPSIS":"561.937","EPOCH":"2023-04-22T07:51:32.112000","RA_OF_ASC_NODE":"234.2151","OBJECT_ID":"2022-099V","MEAN_MOTION_DDOT":"0.0000000000000","RCS_SIZE":"LARGE","APOAPSIS":"564.004","TIME_SYSTEM":"UTC","OBJECT_TYPE":"PAYLOAD","CENTER_NAME":"EARTH","LAUNCH_DATE":"2022-08-12","OBJECT_NAME":"STARLINK-4426","SEMIMAJOR_AXIS":"6941.105","TLE_LINE1":"1 53484U 22099V   23112.32745500  .00003104  00000-0  24606-3 0  9990","ELEMENT_SET_NO":"999","REV_AT_EPOCH":"3809","EPHEMERIS_TYPE":"0","REF_FRAME":"TEME","TLE_LINE2":"2 53484  97.6542 234.2151 0001489  93.7154 266.4240 15.01273433 38091","GP_ID":"230563355","MEAN_MOTION":"15.01273433","FILE":"3892071","COUNTRY_CODE":"US","MEAN_MOTION_DOT":"0.00003104","PERIOD":"95.919"},{"REV_AT_EPOCH":"3809","EPHEMERIS_TYPE":"0","REF_FRAME":"TEME","TLE_LINE2":"2 53485  97.6545 234.2048 0000814  93.7093 266.4224 15.01310062 38095","GP_ID":"230596020","MEAN_MOTION":"15.01310062","FILE":"3892285","PERIOD":"95.916","MEAN_MOTION_DOT":"-0.00007015","COUNTRY_CODE":"US","OBJECT_TYPE":"PAYLOAD","LAUNCH_DATE":"2022-08-12","CENTER_NAME":"EARTH","OBJECT_NAME":"STARLINK-4430","SEMIMAJOR_AXIS":"6940.993","TLE_LINE1":"1 53485U 22099W   23112.32188549 -.00007015  00000-0 -54137-3 0  9994","ELEMENT_SET_NO":"999","EPOCH":"2023-04-22T07:43:30.906336","RA_OF_ASC_NODE":"234.2048","PERIAPSIS":"562.293","OBJECT_ID":"2022-099W","RCS_SIZE":"LARGE","MEAN_MOTION_DDOT":"0.0000000000000","APOAPSIS":"563.423","TIME_SYSTEM":"UTC","ARG_OF_PERICENTER":"93.7093","SITE":"AFWTR","BSTAR":"-0.00054137000000","MEAN_ELEMENT_THEORY":"SGP4","MEAN_ANOMALY":"266.4224","ECCENTRICITY":"0.00008140","DECAY_DATE":null,"INCLINATION":"97.6545","NORAD_CAT_ID":"53485","CLASSIFICATION_TYPE":"U"},{"BSTAR":"0.00019506000000","SITE":"AFWTR","MEAN_ANOMALY":"260.3194","MEAN_ELEMENT_THEORY":"SGP4","ARG_OF_PERICENTER":"99.8181","CLASSIFICATION_TYPE":"U","ECCENTRICITY":"0.00013330","INCLINATION":"97.6543","DECAY_DATE":null,"NORAD_CAT_ID":"53486","OBJECT_ID":"2022-099X","MEAN_MOTION_DDOT":"0.0000000000000","RCS_SIZE":"LARGE","PERIAPSIS":"562.053","RA_OF_ASC_NODE":"234.2128","EPOCH":"2023-04-22T07:48:52.207200","APOAPSIS":"563.904","TIME_SYSTEM":"UTC","LAUNCH_DATE":"2022-08-12","CENTER_NAME":"EARTH","OBJECT_TYPE":"PAYLOAD","ELEMENT_SET_NO":"999","OBJECT_NAME":"STARLINK-4431","SEMIMAJOR_AXIS":"6941.113","TLE_LINE1":"1 53486U 22099X   23112.32560425  .00002448  00000-0  19506-3 0  9996","REF_FRAME":"TEME","GP_ID":"230594769","TLE_LINE2":"2 53486  97.6543 234.2128 0001333  99.8181 260.3194 15.01270838 38090","REV_AT_EPOCH":"3809","EPHEMERIS_TYPE":"0","FILE":"3892285","COUNTRY_CODE":"US","MEAN_MOTION_DOT":"0.00002448","PERIOD":"95.919","MEAN_MOTION":"15.01270838"},{"APOAPSIS":"563.291","TIME_SYSTEM":"UTC","EPOCH":"2023-04-22T07:38:11.980608","RA_OF_ASC_NODE":"234.1935","PERIAPSIS":"562.679","RCS_SIZE":"LARGE","MEAN_MOTION_DDOT":"0.0000000000000","OBJECT_ID":"2022-099Y","INCLINATION":"97.6534","DECAY_DATE":null,"NORAD_CAT_ID":"53487","ECCENTRICITY":"0.00004410","CLASSIFICATION_TYPE":"U","ARG_OF_PERICENTER":"181.4840","MEAN_ELEMENT_THEORY":"SGP4","MEAN_ANOMALY":"178.6383","BSTAR":"0.00015798000000","SITE":"AFWTR","MEAN_MOTION":"15.01268673","MEAN_MOTION_DOT":"0.00001971","PERIOD":"95.919","COUNTRY_CODE":"US","FILE":"3892071","EPHEMERIS_TYPE":"0","REV_AT_EPOCH":"3809","TLE_LINE2":"2 53487  97.6534 234.1935 0000441 181.4840 178.6383 15.01268673 38090","GP_ID":"230563105","REF_FRAME":"TEME","SEMIMAJOR_AXIS":"6941.120","TLE_LINE1":"1 53487U 22099Y   23112.31819422  .00001971  00000-0  15798-3 0  9999","OBJECT_NAME":"STARLINK-4432","ELEMENT_SET_NO":"999","OBJECT_TYPE":"PAYLOAD","CENTER_NAME":"EARTH","LAUNCH_DATE":"2022-08-12"},{"BSTAR":"0.00028595000000","SITE":"AFWTR","MEAN_ANOMALY":"257.3500","MEAN_ELEMENT_THEORY":"SGP4","ARG_OF_PERICENTER":"102.7883","CLASSIFICATION_TYPE":"U","ECCENTRICITY":"0.00014200","INCLINATION":"97.6541","DECAY_DATE":null,"NORAD_CAT_ID":"53488","OBJECT_ID":"2022-099Z","MEAN_MOTION_DDOT":"0.0000000000000","RCS_SIZE":"LARGE","PERIAPSIS":"562.006","EPOCH":"2023-04-22T07:46:12.150336","RA_OF_ASC_NODE":"234.2105","TIME_SYSTEM":"UTC","APOAPSIS":"563.977","CENTER_NAME":"EARTH","LAUNCH_DATE":"2022-08-12","OBJECT_TYPE":"PAYLOAD","ELEMENT_SET_NO":"999","OBJECT_NAME":"STARLINK-4421","SEMIMAJOR_AXIS":"6941.126","TLE_LINE1":"1 53488U 22099Z   23112.32375174  .00003616  00000-0  28595-3 0  9999","REF_FRAME":"TEME","GP_ID":"230563855","TLE_LINE2":"2 53488  97.6541 234.2105 0001420 102.7883 257.3500 15.01266702 38097","REV_AT_EPOCH":"3809","EPHEMERIS_TYPE":"0","FILE":"3892071","COUNTRY_CODE":"US","MEAN_MOTION_DOT":"0.00003616","PERIOD":"95.919","MEAN_MOTION":"15.01266702"},{"MEAN_ELEMENT_THEORY":"SGP4","MEAN_ANOMALY":"209.1582","BSTAR":"0.00207400000000","SITE":"AFWTR","ARG_OF_PERICENTER":"150.9670","CLASSIFICATION_TYPE":"U","DECAY_DATE":null,"INCLINATION":"97.6540","NORAD_CAT_ID":"53489","ECCENTRICITY":"0.00005020","RCS_SIZE":"LARGE","MEAN_MOTION_DDOT":"0.0000000000000","OBJECT_ID":"2022-099AA","RA_OF_ASC_NODE":"234.1908","EPOCH":"2023-04-22T07:35:33.848736","PERIAPSIS":"562.538","TIME_SYSTEM":"UTC","APOAPSIS":"563.235","CENTER_NAME":"EARTH","LAUNCH_DATE":"2022-08-12","OBJECT_TYPE":"PAYLOAD","ELEMENT_SET_NO":"999","TLE_LINE1":"1 53489U 22099AA  23112.31636399  .00026709  00000-0  20740-2 0  9999","SEMIMAJOR_AXIS":"6941.021","OBJECT_NAME":"STARLINK-4392","GP_ID":"230564106","TLE_LINE2":"2 53489  97.6540 234.1908 0000502 150.9670 209.1582 15.01300790 38097","REF_FRAME":"TEME","REV_AT_EPOCH":"3809","EPHEMERIS_TYPE":"0","PERIOD":"95.917","MEAN_MOTION_DOT":"0.00026709","COUNTRY_CODE":"US","FILE":"3892071","MEAN_MOTION":"15.01300790"}];
